ONEWEB-0369             
1 49295U 21090S   23358.85364081 -.00001846  00000+0 -46443-2 0  9990
2 49295  87.9164 125.1746 0001498  69.5790 290.5504 13.19714772108297
ONEWEB-0370             
1 49296U 21090T   23358.34857423  .00000060  00000+0  11496-3 0  9998
2 49296  87.9194  94.7588 0001642 103.3318 256.7998 13.20773482110299
ONEWEB-0371             
1 49297U 21090U   23358.40664226  .00000085  00000+0  17915-3 0  9992
2 49297  87.9195 125.2550 0001608 108.0034 252.1274 13.19727866106980
ONEWEB-0372             
1 49298U 21090V   23358.33739518  .00000056  00000+0  10507-3 0  9990
2 49298  87.9204  94.7670 0001713 113.6550 246.4763 13.20774393110261
ONEWEB-0373             
1 49299U 21090W   23358.28860277  .00000106  00000+0  22806-3 0  9993
2 49299  87.9218  94.7950 0001226 100.1554 259.9717 13.20772658111443
ONEWEB-0374             
1 49300U 21090X   23358.84990768  .00000161  00000+0  40057-3 0  9996
2 49300  87.8975 109.9154 0001489 110.4412 249.6878 13.14503801109916
ONEWEB-0375             
1 49301U 21090Y   23358.27598624  .00000074  00000+0  15041-3 0  9997
2 49301  87.9189  94.7727 0001438  77.2976 282.8318 13.20773983110941
ONEWEB-0376             
1 49302U 21090Z   23358.78413869  .00000041  00000+0  70446-4 0  9996
2 49302  87.9196 125.1987 0001636 115.9341 244.1960 13.19725538108316
